{
    "links": {
        "self": "http://www.neowsapp.com/rest/v1/neo/3559597?api_key=iIulBulltgU6a56xZRHN4H3l9WmuAYTsLGpBGhQ2"
    },
    "id": "3559597",
    "neo_reference_id": "3559597",
    "name": "(2011 EK40)",
    "designation": "2011 EK40",
    "nasa_jpl_url": "http://ssd.jpl.nasa.gov/sbdb.cgi?sstr=3559597",
    "absolute_magnitude_h": 26.6,
    "estimated_diameter": {
        "kilometers": {
            "estimated_diameter_min": 0.0127219879,
            "estimated_diameter_max": 0.0284472297
        },
        "meters": {
            "estimated_diameter_min": 12.7219878539,
            "estimated_diameter_max": 28.4472296503
        },
        "miles": {
            "estimated_diameter_min": 0.0079050743,
            "estimated_diameter_max": 0.0176762835
        },
        "feet": {
            "estimated_diameter_min": 41.7388066307,
            "estimated_diameter_max": 93.330808926
        }
    },
    "is_potentially_hazardous_asteroid": false,
    "close_approach_data": [
        {
            "close_approach_date": "2011-03-01",
            "close_approach_date_full": "2011-Mar-01 21:07",
            "epoch_date_close_approach": 1299013620000,
            "relative_velocity": {
                "kilometers_per_second": "12.3332878892",
                "kilometers_per_hour": "44399.8364010253",
                "miles_per_hour": "27588.3316792926"
            },
            "miss_distance": {
                "astronomical": "0.0134285309",
                "lunar": "5.2236985201",
                "kilometers": "2008879.619869183",
                "miles": "1248259.9132054054"
            },
            "orbiting_body": "Earth"
        }
    ],
    "orbital_data": {
        "orbit_id": "14",
        "orbit_determination_date": "2017-04-06 08:54:12",
        "first_observation_date": "2011-03-10",
        "last_observation_date": "2011-03-14",
        "data_arc_in_days": 4,
        "observations_used": 19,
        "orbit_uncertainty": "8",
        "minimum_orbit_intersection": ".011112",
        "jupiter_tisserand_invariant": "4.336",
        "epoch_osculation": "2455632.5",
        "eccentricity": ".4654393456550373",
        "semi_major_axis": "1.537305351919401",
        "inclination": "8.435466395250261",
        "ascending_node_longitude": "164.0915370085262",
        "orbital_period": "696.2074007308966",
        "perihelion_distance": ".8217829548500482",
        "perihelion_argument": "292.8098576854991",
        "aphelion_distance": "2.252827748988754",
        "perihelion_time": "2455577.032698387987",
        "mean_anomaly": "28.68143682379922",
        "mean_motion": ".5170872926976396",
        "equinox": "J2000",
        "orbit_class": {
            "orbit_class_type": "APO",
            "orbit_class_description": "Near-Earth asteroid orbits which cross the Earth’s orbit similar to that of 1862 Apollo",
            "orbit_class_range": "a (semi-major axis) > 1.0 AU; q (perihelion) < 1.017 AU"
        }
    },
    "is_sentry_object": false
}